CELTEE 1                
1 41850U 16067C   18052.77371931  .00000482  00000-0  47489-4 0  9992
2 41850  97.9283 139.4615 0009072 179.1962 180.9275 14.96744357 69838
OPTICUBE 04             
1 41851U 16067D   18053.19653757  .00000301  00000-0  31756-4 0  9999
2 41851  97.9289 139.8344 0008841 177.5766 182.5500 14.96626341 69892
AEROCUBE 8D             
1 41852U 16067E   18053.21872228 -.00000215  00000-0 -13592-4 0  9993
2 41852  97.9297 139.7154 0009666 180.6940 179.4269 14.96415306 69888
AEROCUBE 8C             
1 41853U 16067F   18053.23012939  .00000169  00000-0  20288-4 0  9997
2 41853  97.9292 139.6973 0010179 181.9068 178.2115 14.96377503 69881
PROMETHEUS 2-1          
1 41854U 16067G   18052.77502849  .00000752  00000-0  71565-4 0  9992
2 41854  97.9300 139.2211 0010588 182.2695 177.8480 14.96441114 69810
PROMETHEUS 2-3          
1 41855U 16067H   18052.77746459  .00000861  00000-0  81239-4 0  9990
2 41855  97.9303 139.2254 0010756 182.4967 177.6202 14.96439105 69819
STARS-C                 
1 41895U 98067KR  18053.74089452  .00686396  25431-3  79670-3 0  9991
2 41895  51.6310 185.3077 0006662 324.1436  35.9083 16.08193661 67472
ITF-2                   
1 41932U 98067KU  18053.36709878  .00020932  00000-0  17808-3 0  9997
2 41932  51.6367 209.4707 0003807 127.5586 232.5757 15.69547366 62696
WASEDA-SAT3             
1 41933U 98067KV  18052.85015440  .00029903  00000-0  22283-3 0  9996
2 41933  51.6337 208.9308 0003184 131.6644 228.4627 15.72501746 62656
AOBA-VELOX 3            
1 41935U 98067KX  18052.88861494  .00027091  00000-0  21198-3 0  9999
2 41935  51.6357 209.9950 0003023 131.1235 229.0024 15.71397673 62746
INS-1B                  
1 41954U 17008G   18052.87021760  .00001261  00000-0  57150-4 0  9998
2 41954  97.4611 117.7415 0010562  45.5593 314.6506 15.22665340 56453
BGUSAT                  
1 41999U 17008BD  18052.88986978  .00001955  00000-0  83519-4 0  9997
2 41999  97.4647 118.4933 0009931  63.2262 296.9990 15.24048591 55860
DIDO-2                  
1 42000U 17008BE  18053.42072623  .00000862  00000-0  39700-4 0  9994
2 42000  97.4629 118.6521 0010136  60.9312 299.2938 15.22944010 55933
PEASSS                  
1 42015U 17008BV  18053.12982733  .00001130  00000-0  50045-4 0  9993
2 42015  97.4624 118.6890 0008126  69.8517 290.3594 15.23694023 56392
AL-FARABI 1             
1 42016U 17008BW  18053.41334152  .00001316  00000-0  57219-4 0  9998
2 42016  97.4630 119.0925 0008004  69.7053 290.5044 15.24032685 56565
NAYIF-1 (EO-88)         
1 42017U 17008BX  18052.88405037  .00001436  00000-0  62151-4 0  9994
2 42017  97.4628 118.5710 0008005  71.3523 288.8583 15.24052523 56506
HAVELSAT                
1 42700U 98067LH  18053.44431011  .00017620  00000-0  17831-3 0  9997
2 42700  51.6364 218.9732 0004700 179.6490 180.4509 15.65371730 44013
COLUMBIA                
1 42702U 98067LK  18053.27149670  .00402735  78787-4  83832-3 0  9997
2 42702  51.6246 202.5590 0006710 301.8245  58.2111 15.98481021 44130
SGSAT                   
1 42703U 98067LL  18053.44960822  .00075521  00000-0  42652-3 0  9990
2 42703  51.6334 209.8949 0000801 229.4620 130.6311 15.78453604 44045
CXBN-2                  
1 42704U 98067LM  18052.73445879  .00017851  00000-0  18360-3 0  9993
2 42704  51.6370 223.2414 0001888 121.8868 238.2311 15.64957323 43819
ICECUBE                 
1 42705U 98067LN  18052.93850089  .00024441  00000-0  21510-3 0  9993
2 42705  51.6404 219.3993 0001654 113.4812 246.6359 15.68617835 43947
PHOENIX                 
1 42706U 98067LP  18052.98470698  .00016451  00000-0  17248-3 0  9998
2 42706  51.6362 221.9070 0001231 136.4512 223.6580 15.64538217 43841
X-CUBESAT               
1 42707U 98067LQ  18053.25905215  .00018151  00000-0  18258-3 0  9999
2 42707  51.6341 219.9573 0001194 145.1305 214.9769 15.65506588 43882
QBEE50-LTU-OC           
1 42708U 98067LR  18053.41431414  .00016813  00000-0  17231-3 0  9996
2 42708  51.6363 219.5105 0001264 143.0369 217.0713 15.65096640 43863
ALTAIR PATHFINDER       
1 42711U 98067LS  18053.28779536  .00009964  00000-0  12084-3 0  9995
2 42711  51.6364 223.9268 0004102 111.8763 248.2667 15.61313202 43509
SHARC                   
1 42712U 98067LT  18052.90946563  .00008109  00000-0  10332-3 0  9994
2 42712  51.6383 226.6826 0002522 117.2732 242.8518 15.60313941 43673
ZA-AEROSAT              
1 42713U 98067LU  18052.92519421  .00014263  00000-0  15694-3 0  9990
2 42713  51.6355 223.7528 0002182 107.5304 252.5929 15.63433019 43473
LINK                    
1 42714U 98067LV  18053.41181664  .00028805  00000-0  25131-3 0  9994
2 42714  51.6325 217.2025 0001510 121.6470 238.4675 15.68731054 43719
CSUNSAT 1               
1 42715U 98067LW  18053.03878431  .00014839  00000-0  16128-3 0  9996
2 42715  51.6368 223.0192 0003888 104.3869 255.7557 15.63709007 43491
SPACECUBE               
1 42717U 98067LY  18053.05331003  .00019286  00000-0  19759-3 0  9993
2 42717  51.6352 221.6023 0003352 179.4856 180.6143 15.64992208 42885
HOOPOE                  
1 42718U 98067LZ  18053.41364432  .00020343  00000-0  19823-3 0  9994
2 42718  51.6361 218.7609 0003228 180.9783 179.1207 15.66215422 42951
CHALLENGER              
1 42721U 98067MA  18053.40753380  .00037903  00000-0  30030-3 0  9994
2 42721  51.6338 215.6726 0004666 171.8159 188.2916 15.70912130 42692
NJUST-1                 
1 42722U 98067MB  18053.43832579  .00013146  00000-0  14868-3 0  9990
2 42722  51.6366 221.9351 0006124 160.4431 199.6799 15.62794872 42615
UNSW-ECO                
1 42723U 98067MC  18053.44518877  .00022178  00000-0  21394-3 0  9991
2 42723  51.6373 218.9849 0005340 163.1643 196.9531 15.66398512 42637
LILACSAT-1              
1 42725U 98067ME  18053.36167273  .00016061  00000-0  17154-3 0  9997
2 42725  51.6364 221.4236 0005080 163.3966 196.7196 15.64077879 42520
NSIGHT-1                
1 42726U 98067MF  18052.98606802  .00006674  00000-0  88647-4 0  9996
2 42726  51.6382 227.1886 0005939 159.9812 200.1415 15.59542782 42415
SNUSAT-1                
1 42727U 98067MG  18053.36652926  .00015997  00000-0  17130-3 0  9994
2 42727  51.6349 221.4249 0006593 126.0180 234.1427 15.64006830 42481
I-INSPIRE II            
1 42731U 98067ML  18053.02932931  .00026264  00000-0  24817-3 0  9998
2 42731  51.6353 220.6682 0005321 112.9845 247.1713 15.66804351 42357
POLYITAN-2-SAU          
1 42732U 98067MM  18053.44315986  .00018978  00000-0  19180-3 0  9990
2 42732  51.6358 219.6948 0005700 112.3895 247.7705 15.65340197 42401
SNUSAT-1B               
1 42733U 98067MN  18053.44477824  .00016567  00000-0  17385-3 0  9998
2 42733  51.6360 220.4626 0005923 114.9934 245.1677 15.64496952 42395
EXALTA-1                
1 42734U 98067MP  18053.09815213  .00023725  00000-0  22415-3 0  9992
2 42734  51.6341 220.3740 0006492 138.9240 221.2246 15.66864258 42318
BEEAGLESAT              
1 42736U 98067MR  18052.98576420  .00015839  00000-0  17109-3 0  9996
2 42736  51.6354 223.3961 0006414 155.9535 204.1760 15.63794762 42378
ATLANTIS                
1 42737U 98067MS  18052.88304383  .00151100  00000-0  58682-3 0  9996
2 42737  51.6254 209.7665 0002775 238.8862 121.1870 15.86183401 42431
UCLSAT                  
1 42765U 17036A   18052.73732875  .00001260  00000-0  58954-4 0  9993
2 42765  97.4168 114.3749 0013455 118.0961 242.1637 15.21525468 37154
LITUANICASAT-2          
1 42768U 17036D   18053.14587142  .00001775  00000-0  83216-4 0  9997
2 42768  97.4175 114.4559 0017640 108.4257 251.8898 15.20861647 37074
AALTO-1                 
1 42775U 17036L   18052.74474712  .00000812  00000-0  40172-4 0  9993
2 42775  97.4165 114.0610 0015937 107.0873 253.2110 15.20526518 36955
URSA MAIOR              
1 42776U 17036M   18053.39475400  .00000786  00000-0  38899-4 0  9994
2 42776  97.4170 114.7301 0015798 105.3040 254.9943 15.20592924 37056
COMPASS 2               
1 42777U 17036N   18052.72463018  .00001562  00000-0  72751-4 0  9991
2 42777  97.4187 114.2872 0014726 111.0143 249.2670 15.21314640 36951
DIAMOND RED             
1 42783U 17036U   18053.10326466  .00000949  00000-0  45556-4 0  9997
2 42783  97.4169 114.6533 0014070 116.9385 243.3290 15.21199833 37016
PEGASUS                 
1 42784U 17036V   18053.41872214  .00001040  00000-0  49408-4 0  9992
2 42784  97.4170 114.9992 0014022 116.1305 244.1376 15.21356690 37067
DIAMOND GREEN           
1 42785U 17036W   18052.64194197  .00001011  00000-0  48326-4 0  9990
2 42785  97.4173 114.2082 0013946 118.9018 241.3619 15.21201956 36937
DIAMOND BLUE            
1 42786U 17036X   18053.16724732  .00000964  00000-0  46245-4 0  9997
2 42786  97.4170 114.7264 0013787 117.4932 242.7706 15.21199509 37016
NUDTSAT                 
1 42787U 17036Y   18052.71780211  .00001653  00000-0  75755-4 0  9996
2 42787  97.4176 114.4127 0013563 118.3692 241.8913 15.21796076 36801
SUCHAI                  
1 42788U 17036Z   18053.39426564  .00001219  00000-0  57039-4 0  9993
2 42788  97.4171 115.0301 0013645 116.1987 244.0653 15.21573317 37136
SKCUBE                  
1 42789U 17036AA  18052.93139992  .00001214  00000-0  56846-4 0  9999
2 42789  97.4170 114.5759 0013444 117.5182 242.7422 15.21558689 36982
VZLUSAT-1               
1 42790U 17036AB  18052.70905584  .00001627  00000-0  74567-4 0  9992
2 42790  97.4172 114.4121 0013117 118.6552 241.6005 15.21826141 36951
ROBUSTA-1B              
1 42792U 17036AD  18052.71330318  .00001265  00000-0  58874-4 0  9993
2 42792  97.4168 114.4013 0013009 119.1662 241.0877 15.21695258 36961
CICERO 6                
1 42793U 17036AE  18053.35725608  .00000718  00000-0  34803-4 0  9993
2 42793  97.4163 115.0599 0012136 117.6810 242.5659 15.21648418 37131
D-SAT                   
1 42794U 17036AF  18053.13687168  .00000099  00000-0  14429-4 0  9992
2 42794  97.6085 112.0458 0125943 305.4170  53.5339 14.90784804 36583
